              TDR Cartesian                         TDR Cartesian  
    -----------------------------------       --------------------------------
     X    =      -17685881.23                 X    =        -5390656.60
     Y    =        6309469.26  feet           Y    =         1923126.23  meter
     Z    =       11910916.22                 Z    =         3630447.26
     XDOT =     -14390.458473                 XDOT =       -4386.211743
     YDOT =     -13050.056289  feet/sec       YDOT =       -3977.657157  meter/sec
     ZDOT =     -14399.059860                 ZDOT =       -4388.833445
  
  
    The mean element set is posted at the UTC for which position is
    just north of the next ascending node relative to the above
    vector time
 
 
    TWO LINE MEAN ELEMENT SET
  
    ISS
    1 25544U 98067A   16102.53988290  .00016717  00000-0  10270-3 0  9078
    2 25544  51.6426  30.4561 0002606  45.1948 314.9416 15.54454861 34615
  
  
    Satellite: ISS
    Catalog Number: 25544
    Epoch time:      16102.53988290   =   yrday.fracday
    Element set:     907
    Inclination:       51.6426  deg
    RA of node:        30.4561  deg
    Eccentricity:     .0002606     
    Arg of perigee:    45.1948  deg
    Mean anomaly:     314.9416  deg
    Mean motion:   15.54454861  rev/day
    Decay rate:    1.67170E-04  rev/day^2
    Epoch rev:            3461
    Checksum:              307
 
 
    Coasting Arc #9 (Orbit 3475)
    ---------------------------------------
 
    Vector Time (GMT): 2016/103/12:00:00.000
    Vector Time (MET): N/A
    Weight (LBS)     : 944180.3
 
              M50 Cartesian                         M50 Keplerian  
    -----------------------------------       --------------------------------
     X    =        6337237.85                 A    =         6786433.43  meter
     Y    =        1083421.99  meter          E    =           .0009002
     Z    =       -2165413.40                 I    =           51.81634
     XDOT =        979.588831                 Wp   =           43.17640
     YDOT =       5240.970253  meter/sec      RA   =           25.06186  deg
     ZDOT =       5508.969331                 TA   =          292.86484
                                              MA   =          292.95987
                                              Ha   =            221.332  n.mi
                                              Hp   =            213.435
 
              M50 Cartesian                         J2K Cartesian  
    -----------------------------------       --------------------------------
     X    =       20791462.76                 X    =         6335170.48
     Y    =        3554534.09  feet           Y    =         1154277.54  meter
     Z    =       -7104374.68                 Z    =        -2134633.53
     XDOT =       3213.874116                 XDOT =         894.149790
     YDOT =      17194.784296  feet/sec       YDOT =        5251.447205  meter/sec
     ZDOT =      18074.046363                 ZDOT =        5513.520198
 
              TDR Cartesian                         TDR Cartesian  
    -----------------------------------       --------------------------------
     X    =       20777506.51                 X    =         6332983.99
     Y    =       -3885166.38  feet           Y    =        -1184198.71  meter
     Z    =       -6970830.72                 Z    =        -2124709.20
     XDOT =       8580.181978                 XDOT =        2615.239467
     YDOT =      13543.110666  feet/sec       YDOT =        4127.940131  meter/sec
     ZDOT =      18092.786951                 ZDOT =        5514.681463
  
  
    The mean element set is posted at the UTC for which position is
    just north of the next ascending node relative to the above
    vector time
 
 
    TWO LINE MEAN ELEMENT SET
  
    ISS
    1 25544U 98067A   16103.50420780  .00016717  00000-0  10270-3 0  9082
    2 25544  51.6427  25.6466 0002652  48.4297 311.7082 15.54464290 34767
  
  
    Satellite: ISS
    Catalog Number: 25544
    Epoch time:      16103.50420780   =   yrday.fracday
    Element set:     908
    Inclination:       51.6427  deg
    RA of node:        25.6466  deg
    Eccentricity:     .0002652     
    Arg of perigee:    48.4297  deg
    Mean anomaly:     311.7082  deg
    Mean motion:   15.54464290  rev/day
    Decay rate:    1.67170E-04  rev/day^2
    Epoch rev:            3476
    Checksum:              303
 
 
    Coasting Arc #10 (Orbit 3491)
    ---------------------------------------
 
    Vector Time (GMT): 2016/104/12:00:00.000
    Vector Time (MET): N/A
    Weight (LBS)     : 944180.3
 
              M50 Cartesian                         M50 Keplerian  
    -----------------------------------       --------------------------------
     X    =       -6453364.48                 A    =         6788279.39  meter
     Y    =       -2057708.56  meter          E    =           .0013483
     Z    =         362599.98                 I    =           51.79371
     XDOT =       1128.133993                 Wp   =          119.87894
     YDOT =      -4625.665036  meter/sec      RA   =           20.10020  deg
     ZDOT =      -6011.467439                 TA   =           56.22032
                                              MA   =           56.09197
                                              Ha   =            221.291  n.mi
                                              Hp   =            213.354
 
              M50 Cartesian                         J2K Cartesian  
    -----------------------------------       --------------------------------
     X    =      -21172455.63                 X    =        -6431636.40
     Y    =       -6751012.34  feet           Y    =        -2129752.87  meter
     Z    =        1189632.49                 Z    =          331303.90
     XDOT =       3701.227010                 XDOT =        1208.976734
     YDOT =     -15176.066390  feet/sec       YDOT =       -4612.597776  meter/sec
     ZDOT =     -19722.662202                 ZDOT =       -6005.790632
 
              TDR Cartesian                         TDR Cartesian  
    -----------------------------------       --------------------------------
     X    =      -22186257.72                 X    =        -6762371.35
     Y    =        1386806.76  feet           Y    =          422698.70  meter
     Z    =        1054042.77                 Z    =          321272.24
     XDOT =      -1833.852500                 XDOT =        -558.958242
     YDOT =     -13915.231217  feet/sec       YDOT =       -4241.362475  meter/sec
     ZDOT =     -19697.075820                 ZDOT =       -6003.668710
  
  
    The mean element set is posted at the UTC for which position is
    just north of the next ascending node relative to the above
    vector time
 
 
    TWO LINE MEAN ELEMENT SET
  
    ISS
    1 25544U 98067A   16104.53280949  .00016717  00000-0  10270-3 0  9098
    2 25544  51.6432  20.5166 0002650  53.4459 306.6938 15.54474640 34929
  
  
    Satellite: ISS
    Catalog Number: 25544
    Epoch time:      16104.53280949   =   yrday.fracday
    Element set:     909
    Inclination:       51.6432  deg
    RA of node:        20.5166  deg
    Eccentricity:     .0002650     
    Arg of perigee:    53.4459  deg
    Mean anomaly:     306.6938  deg
    Mean motion:   15.54474640  rev/day
    Decay rate:    1.67170E-04  rev/day^2
    Epoch rev:            3492
    Checksum:              311
 
 
    Coasting Arc #11 (Orbit 3491)
    ---------------------------------------
 
    Vector Time (GMT): 2016/104/12:20:06.793
    Vector Time (MET): N/A
    Weight (LBS)     : 943970.7
 
              M50 Cartesian                         M50 Keplerian  
    -----------------------------------       --------------------------------
     X    =        -350449.78                 A    =         6778164.06  meter
     Y    =       -4431669.84  meter          E    =           .0014543
     Z    =       -5129787.54                 I    =           51.75673
     XDOT =       7364.056063                 Wp   =           74.35155
     YDOT =       1313.236253  meter/sec      RA   =           20.04732  deg
     ZDOT =      -1637.643468                 TA   =          179.84730
                                              MA   =          179.84686
                                              Ha   =            221.291  n.mi
                                              Hp   =            214.348
 
              M50 Cartesian                         J2K Cartesian  
    -----------------------------------       --------------------------------
     X    =       -1149769.61                 X    =         -275949.29
     Y    =      -14539599.20  feet           Y    =        -4435172.50  meter
     Z    =      -16830011.61                 Z    =        -5131308.76
     XDOT =      24160.288919                 XDOT =        7356.778816
     YDOT =       4308.517892  feet/sec       YDOT =        1395.545253  meter/sec
     ZDOT =      -5372.846023                 ZDOT =       -1601.888316
 
              TDR Cartesian                         TDR Cartesian  
    -----------------------------------       --------------------------------
     X    =       -7376060.71                 X    =        -2248223.31
     Y    =      -12574684.51  feet           Y    =        -3832763.84  meter
     Z    =      -16835743.04                 Z    =        -5131534.48
     XDOT =      22681.921606                 XDOT =        6913.449706
     YDOT =      -6319.125736  feet/sec       YDOT =       -1926.069524  meter/sec
     ZDOT =      -5217.731691                 ZDOT =       -1590.364619
  
  
    The mean element set is posted at the UTC for which position is
    just north of the next ascending node relative to the above
    vector time
 
 
    TWO LINE MEAN ELEMENT SET
  
    ISS
    1 25544U 98067A   16104.53281107  .00016717  00000-0  10270-3 0  9107
    2 25544  51.6436  20.5169 0001251  38.0625 322.0616 15.54138988 34923
  
